CS1                     
1 49261U 21088B   26068.75173904  .00015722  00000+0  51176-3 0  9998
2 49261  97.3882 132.1684 0014129  78.0335 282.2490 15.31848439245182
STARLINK-31112          
1 58680U 23211P   26068.08997304 -.00001000  00000+0 -26824-4 0  9996
2 58680  43.0041  88.6008 0001135 265.7593  94.3129 15.27574422123551
